NORAD_CAT_ID,OBJECT_NAME,OBJECT_TYPE,EPOCH,MEAN_MOTION,ECCENTRICITY,INCLINATION,RA_OF_ASC_NODE,ARG_OF_PERICENTER,MEAN_ANOMALY,BSTAR,MEAN_MOTION_DOT,MEAN_MOTION_DDOT,TLE_LINE0,TLE_LINE1,TLE_LINE2,SEMIMAJOR_AXIS,PERIOD,APOGEE,PERIGEE,DECAYED
56493.0,STARLINK-5841,PAYLOAD,2024-06-12 06:55:00,14.98327794,0.0003049,70.0005,246.3231,271.3298,88.7512,3.6415e-06,-5e-07,0.0,0 STARLINK-5841,1 56493U 23064AX  24164.28819827 -.00000050  00000-0  36415-5 0  9994,2 56493  70.0005 246.3231 0003049 271.3298  88.7512 14.98327794 61552,6950.2,96.107,574.184,569.946,0.0
56493.0,STARLINK-5841,PAYLOAD,2024-06-12 13:19:32,14.98324526,0.000309,70.0006,245.6501,270.4873,89.5932,-1.9691e-05,-3.28e-06,0.0,0 STARLINK-5841,1 56493U 23064AX  24164.55524087 -.00000328  00000-0 -19691-4 0  9990,2 56493  70.0006 245.6501 0003090 270.4873  89.5932 14.98324526 61959,6950.21,96.107,574.222,569.927,0.0
56493.0,STARLINK-5841,PAYLOAD,2024-06-12 14:55:41,14.98323074,0.0003107,70.0005,245.4817,270.3395,89.7408,-3.7705e-05,-5.43e-06,0.0,0 STARLINK-5841,1 56493U 23064AX  24164.62200240 -.00000543  00000-0 -37705-4 0  9995,2 56493  70.0005 245.4817 0003107 270.3395  89.7408 14.98323074 61602,6950.214,96.107,574.239,569.92,0.0
56493.0,STARLINK-5841,PAYLOAD,2024-06-13 05:20:53,14.98329191,0.0003203,70.0001,243.9665,270.2352,89.844,8.1248e-05,8.77e-06,0.0,0 STARLINK-5841,1 56493U 23064AX  24165.22283621  .00000877  00000-0  81248-4 0  9995,2 56493  70.0001 243.9665 0003203 270.2352  89.8440 14.98329191 62054,6950.195,96.107,574.287,569.834,0.0
56493.0,STARLINK-5841,PAYLOAD,2024-06-13 14:57:41,14.98331726,0.0003245,69.9999,242.955,267.4521,92.6267,5.5577e-05,5.7e-06,0.0,0 STARLINK-5841,1 56493U 23064AX  24165.62339474  .00000570  00000-0  55577-4 0  9993,2 56493  69.9999 242.9550 0003245 267.4521  92.6267 14.98331726 61753,6950.188,96.107,574.308,569.797,0.0
56493.0,STARLINK-5841,PAYLOAD,2024-06-14 13:23:34,14.98330459,0.0003358,69.9997,240.5995,267.8612,92.2163,9.7168e-05,1.067e-05,0.0,0 STARLINK-5841,1 56493U 23064AX  24166.55803445  .00001067  00000-0  97168-4 0  9994,2 56493  69.9997 240.5995 0003358 267.8612  92.2163 14.98330459 61896,6950.191,96.107,574.39,569.723,0.0
56493.0,STARLINK-5841,PAYLOAD,2024-06-14 14:59:42,14.9833102,0.0003353,69.9997,240.4311,267.826,92.2515,0.00010185,1.122e-05,0.0,0 STARLINK-5841,1 56493U 23064AX  24166.62479399  .00001122  00000-0  10185-3 0  9994,2 56493  69.9997 240.4311 0003353 267.8260  92.2515 14.98331020 61909,6950.19,96.107,574.385,569.724,0.0
56493.0,STARLINK-5841,PAYLOAD,2024-06-15 13:25:34,14.98336573,0.0003321,69.9997,238.0751,267.351,92.7269,5.5232e-05,5.66e-06,0.0,0 STARLINK-5841,1 56493U 23064AX  24167.55942980  .00000566  00000-0  55232-4 0  9992,2 56493  69.9997 238.0751 0003321 267.3510  92.7269 14.98336573 62043,6950.173,96.107,574.346,569.729,0.0
56493.0,STARLINK-5841,PAYLOAD,2024-06-15 15:01:42,14.98336925,0.000332,69.9997,237.9067,267.3787,92.6992,5.8118e-05,6.01e-06,0.0,0 STARLINK-5841,1 56493U 23064AX  24167.62618924  .00000601  00000-0  58118-4 0  9994,2 56493  69.9997 237.9067 0003320 267.3787  92.6992 14.98336925 62050,6950.171,96.107,574.344,569.729,0.0
56493.0,STARLINK-5841,PAYLOAD,2024-06-16 13:27:35,14.98332802,0.0003227,69.9998,235.5507,266.2778,93.8012,3.4564e-05,3.19e-06,0.0,0 STARLINK-5841,1 56493U 23064AX  24168.56083025  .00000319  00000-0  34564-4 0  9991,2 56493  69.9998 235.5507 0003227 266.2778  93.8012 14.98332802 62199,6950.184,96.107,574.292,569.806,0.0
56493.0,STARLINK-5841,PAYLOAD,2024-06-16 21:28:16,14.98330088,0.0003215,69.9998,234.7091,266.5088,93.5703,-7.6068e-06,-1.84e-06,0.0,0 STARLINK-5841,1 56493U 23064AX  24168.89463254 -.00000184  00000-0 -76068-5 0  9991,2 56493  69.9998 234.7091 0003215 266.5088  93.5703 14.98330088 62246,6950.193,96.107,574.292,569.823,0.0
56493.0,STARLINK-5841,PAYLOAD,2024-06-17 11:53:29,14.98326862,0.0003205,69.9998,233.194,268.5541,91.5251,-5.6663e-05,-7.69e-06,0.0,0 STARLINK-5841,1 56493U 23064AX  24169.49547606 -.00000769  00000-0 -56663-4 0  9999,2 56493  69.9998 233.1940 0003205 268.5541  91.5251 14.98326862 62338,6950.203,96.107,574.295,569.84,0.0
56493.0,STARLINK-5841,PAYLOAD,2024-06-18 05:30:57,14.98330691,0.0003221,69.9997,231.3421,267.8889,92.1902,3.4207e-05,3.15e-06,0.0,0 STARLINK-5841,1 56493U 23064AX  24170.22983143  .00000315  00000-0  34207-4 0  9997,2 56493  69.9997 231.3421 0003221 267.8889  92.1902 14.98330691 62803,6950.191,96.107,574.294,569.817,0.0
56493.0,STARLINK-5841,PAYLOAD,2024-06-18 13:31:37,14.98332226,0.0003227,69.9996,230.5005,267.8892,92.1898,4.8543e-05,4.86e-06,0.0,0 STARLINK-5841,1 56493U 23064AX  24170.56362980  .00000486  00000-0  48543-4 0  9991,2 56493  69.9996 230.5005 0003227 267.8892  92.1898 14.98332226 62496,6950.186,96.107,574.294,569.808,0.0
56493.0,STARLINK-5841,PAYLOAD,2024-06-18 21:32:17,14.98331731,0.0003614,69.9985,229.6579,268.0681,92.0064,3.973e-09,-9.3e-07,0.0,0 STARLINK-5841,1 56493U 23064AX  24170.89743005 -.00000093  00000-0  39730-8 0  9995,2 56493  69.9985 229.6579 0003614 268.0681  92.0064 14.98331731 62548,6950.188,96.107,574.564,569.541,0.0
56493.0,STARLINK-5841,PAYLOAD,2024-06-19 05:32:58,14.98313613,0.0003543,69.9984,228.8159,269.1692,90.9061,0.00022117,2.546e-05,0.0,0 STARLINK-5841,1 56493U 23064AX  24171.23123716  .00002546  00000-0  22117-3 0  9995,2 56493  69.9984 228.8159 0003543 269.1692  90.9061 14.98313613 62955,6950.244,96.108,574.571,569.646,0.0
56493.0,STARLINK-5841,PAYLOAD,2024-06-19 13:33:39,14.98325876,0.0003378,69.9992,227.9757,269.7521,90.3251,4.2296e-05,4.12e-06,0.0,0 STARLINK-5841,1 56493U 23064AX  24171.56503503  .00000412  00000-0  42296-4 0  9998,2 56493  69.9992 227.9757 0003378 269.7521  90.3251 14.98325876 63007,6950.206,96.107,574.418,569.723,0.0
56493.0,STARLINK-5841,PAYLOAD,2024-06-20 13:35:39,14.98336864,0.0003526,69.9988,225.4498,270.9583,89.1172,3.8353e-05,3.65e-06,0.0,0 STARLINK-5841,1 56493U 23064AX  24172.56642723  .00000365  00000-0  38353-4 0  9993,2 56493  69.9988 225.4498 0003526 270.9583  89.1172 14.98336864 62796,6950.172,96.107,574.487,569.586,0.0
56493.0,STARLINK-5841,PAYLOAD,2024-06-21 04:00:52,14.98329452,0.0003482,69.9989,223.9348,270.9921,89.0839,5.6829e-05,5.85e-06,0.0,0 STARLINK-5841,1 56493U 23064AX  24173.16727034  .00000585  00000-0  56829-4 0  9991,2 56493  69.9989 223.9348 0003482 270.9921  89.0839 14.98329452 63246,6950.195,96.107,574.48,569.64,0.0
56493.0,STARLINK-5841,PAYLOAD,2024-06-21 13:37:40,14.9833196,0.000346,69.999,222.9253,270.2683,89.808,5.9009e-05,6.11e-06,0.0,0 STARLINK-5841,1 56493U 23064AX  24173.56782876  .00000611  00000-0  59009-4 0  9993,2 56493  69.9990 222.9253 0003460 270.2683  89.8080 14.98331960 62945,6950.187,96.107,574.457,569.647,0.0
56493.0,STARLINK-5841,PAYLOAD,2024-06-22 04:02:53,14.98331074,0.0003387,69.9992,221.4103,270.4453,89.6318,-2.1625e-05,-3.51e-06,0.0,0 STARLINK-5841,1 56493U 23064AX  24174.16867107 -.00000351  00000-0 -21625-4 0  9997,2 56493  69.9992 221.4103 0003387 270.4453  89.6318 14.98331074 63398,6950.19,96.107,574.409,569.701,0.0
56493.0,STARLINK-5841,PAYLOAD,2024-06-22 13:39:41,14.98329967,0.0003416,69.9991,220.4004,270.506,89.5707,-3.1857e-05,-4.73e-06,0.0,0 STARLINK-5841,1 56493U 23064AX  24174.56923188 -.00000473  00000-0 -31857-4 0  9996,2 56493  69.9991 220.4004 0003416 270.5060  89.5707 14.98329967 63090,6950.193,96.107,574.432,569.684,0.0
56493.0,STARLINK-5841,PAYLOAD,2024-06-23 04:04:53,14.98331017,0.0003455,69.9989,218.8852,266.1137,93.9627,2.4622e-05,2.01e-06,0.0,0 STARLINK-5841,1 56493U 23064AX  24175.17006872  .00000201  00000-0  24622-4 0  9995,2 56493  69.9989 218.8852 0003455 266.1137  93.9627 14.98331017 63547,6950.19,96.107,574.456,569.653,0.0
56493.0,STARLINK-5841,PAYLOAD,2024-06-23 12:05:34,14.98330532,0.0003467,69.9989,218.0438,266.6819,93.3944,1.8615e-05,1.29e-06,0.0,0 STARLINK-5841,1 56493U 23064AX  24175.50386905  .00000129  00000-0  18615-4 0  9994,2 56493  69.9989 218.0438 0003467 266.6819  93.3944 14.98330532 63237,6950.191,96.107,574.466,569.647,0.0
56493.0,STARLINK-5841,PAYLOAD,2024-06-24 05:43:02,14.98332787,0.0003627,69.9987,216.1924,269.3684,90.7059,6.7408e-05,7.11e-06,0.0,0 STARLINK-5841,1 56493U 23064AX  24176.23822527  .00000711  00000-0  67408-4 0  9991,2 56493  69.9987 216.1924 0003627 269.3684  90.7059 14.98332787 63706,6950.184,96.107,574.57,569.528,0.0
56493.0,STARLINK-5841,PAYLOAD,2024-06-24 10:31:26,14.98334101,0.0003606,69.9987,215.6875,268.9844,91.0902,8.0382e-05,8.66e-06,0.0,0 STARLINK-5841,1 56493U 23064AX  24176.43850366  .00000866  00000-0  80382-4 0  9992,2 56493  69.9987 215.6875 0003606 268.9844  91.0902 14.98334101 63371,6950.18,96.107,574.551,569.539,0.0
56493.0,STARLINK-5841,PAYLOAD,2024-06-25 05:45:03,14.98329955,0.0003516,69.9988,213.6678,265.6515,94.4243,4.0832e-06,-4.4e-07,0.0,0 STARLINK-5841,1 56493U 23064AX  24177.23962722 -.00000044  00000-0  40832-5 0  9997,2 56493  69.9988 213.6678 0003516 265.6515  94.4243 14.98329955 63859,6950.193,96.107,574.502,569.614,0.0
56493.0,STARLINK-5841,PAYLOAD,2024-06-25 12:09:36,14.98327983,0.0003542,69.9989,212.9945,266.0559,94.0195,-1.9917e-05,-3.31e-06,0.0,0 STARLINK-5841,1 56493U 23064AX  24177.50666925 -.00000331  00000-0 -19917-4 0  9992,2 56493  69.9989 212.9945 0003542 266.0559  94.0195 14.98327983 63537,6950.199,96.107,574.526,569.602,0.0
56493.0,STARLINK-5841,PAYLOAD,2024-06-26 10:35:28,14.98335356,0.0003629,69.9985,210.6372,267.5849,92.4895,1.6613e-05,1.05e-06,0.0,0 STARLINK-5841,1 56493U 23064AX  24178.44130216  .00000105  00000-0  16613-4 0  9992,2 56493  69.9985 210.6372 0003629 267.5849  92.4895 14.98335356 64034,6950.176,96.107,574.564,569.519,0.0
56493.0,STARLINK-5841,PAYLOAD,2024-06-27 12:13:37,14.98329141,0.00037,69.9984,207.9439,270.2544,89.8191,4.4058e-05,4.33e-06,0.0,0 STARLINK-5841,1 56493U 23064AX  24179.50946530  .00000433  00000-0  44058-4 0  9992,2 56493  69.9984 207.9439 0003700 270.2544  89.8191 14.98329141 64190,6950.196,96.107,574.632,569.489,0.0
